[{"OBJECT_NAME":"JILIN-1 GAOFEN 3A","OBJECT_ID":"2019-032C","EPOCH":"2026-03-09T17:53:24.364896","MEAN_MOTION":15.3027131,"ECCENTRICITY":0.00026181,"INCLINATION":44.9746,"RA_OF_ASC_NODE":183.2861,"ARG_OF_PERICENTER":111.29,"MEAN_ANOMALY":248.8263,"EPHEMERIS_TYPE":0,"CLASSIFICATION_TYPE":"U","NORAD_CAT_ID":44312,"ELEMENT_SET_NO":999,"REV_AT_EPOCH":37259,"BSTAR":0.00055381133,"MEAN_MOTION_DOT":0.00016264,"MEAN_MOTION_DDOT":0},{"OBJECT_NAME":"STARLINK-35252","OBJECT_ID":"2025-221AD","EPOCH":"2026-03-09T11:15:25.388640","MEAN_MOTION":15.3020143,"ECCENTRICITY":0.00013376,"INCLINATION":53.159,"RA_OF_ASC_NODE":89.7889,"ARG_OF_PERICENTER":73.5171,"MEAN_ANOMALY":286.5976,"EPHEMERIS_TYPE":0,"CLASSIFICATION_TYPE":"U","NORAD_CAT_ID":65850,"ELEMENT_SET_NO":999,"REV_AT_EPOCH":2604,"BSTAR":0.00095605845,"MEAN_MOTION_DOT":0.00028065,"MEAN_MOTION_DDOT":0}]
