JILIN-1 GAOFEN 3A       
1 44312U 19032C   26068.74542089  .00016264  00000+0  55381-3 0  9993
2 44312  44.9746 183.2861 0002618 111.2900 248.8263 15.30271310372592
STARLINK-35252          
1 65850U 25221AD  26068.46904385  .00028065  00000+0  95606-3 0  9996
2 65850  53.1590  89.7889 0001337  73.5171 286.5976 15.30201430 26040
